start=new Date('2022-07-05T00:00:00.000Z').valueOf();
sats=[{"MEAN_MOTION_DDOT":"0.0000000000000","GP_ID":"207420273","EPHEMERIS_TYPE":"0","MEAN_ELEMENT_THEORY":"SGP4","OBJECT_TYPE":"PAYLOAD","CENTER_NAME":"EARTH","FILE":"3507746","MEAN_MOTION_DOT":"-0.00716166","COUNTRY_CODE":"US","TLE_LINE2":"2 52356  53.2176 113.0433 0001470  60.6442 136.1521 15.35158921  1309","PERIOD":"93.801","CLASSIFICATION_TYPE":"U","BSTAR":"-0.02239900000000","ELEMENT_SET_NO":"999","LAUNCH_DATE":"2022-04-29","EPOCH":"2022-07-04T22:00:00.999936","MEAN_ANOMALY":"136.1521","REV_AT_EPOCH":"130","OBJECT_NAME":"STARLINK-3801","SEMIMAJOR_AXIS":"6838.585","APOAPSIS":"461.456","RCS_SIZE":"LARGE","ARG_OF_PERICENTER":"60.6442","INCLINATION":"53.2176","TIME_SYSTEM":"UTC","RA_OF_ASC_NODE":"113.0433","PERIAPSIS":"459.445","NORAD_CAT_ID":"52356","DECAY_DATE":null,"SITE":"AFETR","REF_FRAME":"TEME","OBJECT_ID":"2022-045AB","TLE_LINE1":"1 52356U 22045AB  22185.91667824 -.00716166  00000-0 -22399-1 0  9990","MEAN_MOTION":"15.35158921","ECCENTRICITY":"0.00014700"},{"GP_ID":"207419733","EPHEMERIS_TYPE":"0","MEAN_MOTION_DDOT":"0.0000000000000","CENTER_NAME":"EARTH","MEAN_ELEMENT_THEORY":"SGP4","OBJECT_TYPE":"PAYLOAD","ELEMENT_SET_NO":"999","CLASSIFICATION_TYPE":"U","TLE_LINE2":"2 52357  53.2176 113.1461 0001660  43.4862  80.1647 15.35770947  1303","PERIOD":"93.764","BSTAR":"-0.02202900000000","LAUNCH_DATE":"2022-04-29","COUNTRY_CODE":"US","FILE":"3507746","MEAN_MOTION_DOT":"-0.00718217","REV_AT_EPOCH":"130","MEAN_ANOMALY":"80.1647","SEMIMAJOR_AXIS":"6836.769","OBJECT_NAME":"STARLINK-3821","EPOCH":"2022-07-04T22:00:00.999936","TIME_SYSTEM":"UTC","RA_OF_ASC_NODE":"113.1461","PERIAPSIS":"457.499","RCS_SIZE":"LARGE","APOAPSIS":"459.768","ARG_OF_PERICENTER":"43.4862","INCLINATION":"53.2176","DECAY_DATE":null,"NORAD_CAT_ID":"52357","TLE_LINE1":"1 52357U 22045AC  22185.91667824 -.00718217  00000-0 -22029-1 0  9990","OBJECT_ID":"2022-045AC","MEAN_MOTION":"15.35770947","SITE":"AFETR","REF_FRAME":"TEME","ECCENTRICITY":"0.00016600"},{"SEMIMAJOR_AXIS":"6833.842","OBJECT_NAME":"STARLINK-3837","REV_AT_EPOCH":"130","MEAN_ANOMALY":"99.5144","EPOCH":"2022-07-04T22:00:00.999936","LAUNCH_DATE":"2022-04-29","ELEMENT_SET_NO":"999","TLE_LINE2":"2 52358  53.2177 113.1846 0001436  60.3993  99.5144 15.36757709  1304","BSTAR":"-0.02131100000000","PERIOD":"93.704","CLASSIFICATION_TYPE":"U","COUNTRY_CODE":"US","FILE":"3507746","MEAN_MOTION_DOT":"-0.00717393","CENTER_NAME":"EARTH","OBJECT_TYPE":"PAYLOAD","MEAN_ELEMENT_THEORY":"SGP4","EPHEMERIS_TYPE":"0","GP_ID":"207420185","MEAN_MOTION_DDOT":"0.0000000000000","ECCENTRICITY":"0.00014360","MEAN_MOTION":"15.36757709","TLE_LINE1":"1 52358U 22045AD  22185.91667824 -.00717393  00000-0 -21311-1 0  9998","OBJECT_ID":"2022-045AD","REF_FRAME":"TEME","SITE":"AFETR","DECAY_DATE":null,"NORAD_CAT_ID":"52358","PERIAPSIS":"454.725","RA_OF_ASC_NODE":"113.1846","TIME_SYSTEM":"UTC","INCLINATION":"53.2177","ARG_OF_PERICENTER":"60.3993","RCS_SIZE":"LARGE","APOAPSIS":"456.688"},{"MEAN_MOTION_DOT":"-0.00718042","FILE":"3507746","COUNTRY_CODE":"US","LAUNCH_DATE":"2022-04-29","TLE_LINE2":"2 52359  53.2176 113.1535 0001555  49.9886  81.2993 15.35965186  1304","CLASSIFICATION_TYPE":"U","PERIOD":"93.752","BSTAR":"-0.02188600000000","ELEMENT_SET_NO":"999","EPOCH":"2022-07-04T22:00:00.999936","OBJECT_NAME":"STARLINK-3853","SEMIMAJOR_AXIS":"6836.192","MEAN_ANOMALY":"81.2993","REV_AT_EPOCH":"130","MEAN_MOTION_DDOT":"0.0000000000000","EPHEMERIS_TYPE":"0","GP_ID":"207420371","OBJECT_TYPE":"PAYLOAD","MEAN_ELEMENT_THEORY":"SGP4","CENTER_NAME":"EARTH","REF_FRAME":"TEME","SITE":"AFETR","MEAN_MOTION":"15.35965186","TLE_LINE1":"1 52359U 22045AE  22185.91667824 -.00718042  00000-0 -21886-1 0  9998","OBJECT_ID":"2022-045AE","ECCENTRICITY":"0.00015550","INCLINATION":"53.2176","RCS_SIZE":"LARGE","ARG_OF_PERICENTER":"49.9886","APOAPSIS":"459.120","PERIAPSIS":"456.994","RA_OF_ASC_NODE":"113.1535","TIME_SYSTEM":"UTC","NORAD_CAT_ID":"52359","DECAY_DATE":null},{"CENTER_NAME":"EARTH","OBJECT_TYPE":"PAYLOAD","MEAN_ELEMENT_THEORY":"SGP4","EPHEMERIS_TYPE":"0","GP_ID":"207419922","MEAN_MOTION_DDOT":"0.0000000000000","SEMIMAJOR_AXIS":"6727.890","OBJECT_NAME":"STARLINK-3824","REV_AT_EPOCH":"130","MEAN_ANOMALY":"98.4929","EPOCH":"2022-07-04T22:00:00.999936","LAUNCH_DATE":"2022-04-29","ELEMENT_SET_NO":"999","PERIOD":"91.533","TLE_LINE2":"2 52360  53.2163 109.4781 0003407   7.9791  98.4929 15.73201715  1302","BSTAR":"0.00026867000000","CLASSIFICATION_TYPE":"U","COUNTRY_CODE":"US","FILE":"3507746","MEAN_MOTION_DOT":"0.00037263","DECAY_DATE":null,"NORAD_CAT_ID":"52360","RA_OF_ASC_NODE":"109.4781","PERIAPSIS":"347.463","TIME_SYSTEM":"UTC","INCLINATION":"53.2163","RCS_SIZE":"LARGE","ARG_OF_PERICENTER":"7.9791","APOAPSIS":"352.047","ECCENTRICITY":"0.00034070","MEAN_MOTION":"15.73201715","OBJECT_ID":"2022-045AF","TLE_LINE1":"1 52360U 22045AF  22185.91667824  .00037263  00000-0  26867-3 0  9993","REF_FRAME":"TEME","SITE":"AFETR"},{"ECCENTRICITY":"0.00014470","SITE":"AFETR","REF_FRAME":"TEME","TLE_LINE1":"1 52361U 22045AG  22185.91667824 -.00717712  00000-0 -21597-1 0  9993","OBJECT_ID":"2022-045AG","MEAN_MOTION":"15.36361423","NORAD_CAT_ID":"52361","DECAY_DATE":null,"ARG_OF_PERICENTER":"57.7060","RCS_SIZE":"LARGE","APOAPSIS":"457.871","INCLINATION":"53.2177","TIME_SYSTEM":"UTC","PERIAPSIS":"455.893","RA_OF_ASC_NODE":"113.1692","EPOCH":"2022-07-04T22:00:00.999936","REV_AT_EPOCH":"130","MEAN_ANOMALY":"88.0797","SEMIMAJOR_AXIS":"6835.017","OBJECT_NAME":"STARLINK-3728","COUNTRY_CODE":"US","FILE":"3507746","MEAN_MOTION_DOT":"-0.00717712","ELEMENT_SET_NO":"999","TLE_LINE2":"2 52361  53.2177 113.1692 0001447  57.7060  88.0797 15.36361423  1305","PERIOD":"93.728","CLASSIFICATION_TYPE":"U","BSTAR":"-0.02159700000000","LAUNCH_DATE":"2022-04-29","MEAN_ELEMENT_THEORY":"SGP4","OBJECT_TYPE":"PAYLOAD","CENTER_NAME":"EARTH","MEAN_MOTION_DDOT":"0.0000000000000","GP_ID":"207420085","EPHEMERIS_TYPE":"0"},{"TIME_SYSTEM":"UTC","PERIAPSIS":"348.375","RA_OF_ASC_NODE":"109.4761","RCS_SIZE":"LARGE","APOAPSIS":"351.296","ARG_OF_PERICENTER":"27.4740","INCLINATION":"53.2159","DECAY_DATE":null,"NORAD_CAT_ID":"52362","TLE_LINE1":"1 52362U 22045AH  22185.91667824  .00005284  00000-0  42093-4 0  9993","OBJECT_ID":"2022-045AH","MEAN_MOTION":"15.73173482","SITE":"AFETR","REF_FRAME":"TEME","ECCENTRICITY":"0.00021710","GP_ID":"207419833","EPHEMERIS_TYPE":"0","MEAN_MOTION_DDOT":"0.0000000000000","CENTER_NAME":"EARTH","MEAN_ELEMENT_THEORY":"SGP4","OBJECT_TYPE":"PAYLOAD","CLASSIFICATION_TYPE":"U","TLE_LINE2":"2 52362  53.2159 109.4761 0002171  27.4740  79.6166 15.73173482  1308","PERIOD":"91.535","BSTAR":"0.00004209300000","ELEMENT_SET_NO":"999","LAUNCH_DATE":"2022-04-29","FILE":"3507746","MEAN_MOTION_DOT":"0.00005284","COUNTRY_CODE":"US","MEAN_ANOMALY":"79.6166","REV_AT_EPOCH":"130","OBJECT_NAME":"STARLINK-3848","SEMIMAJOR_AXIS":"6727.971","EPOCH":"2022-07-04T22:00:00.999936"},{"MEAN_MOTION":"15.36559514","TLE_LINE1":"1 52363U 22045AJ  22185.91667824 -.00717454  00000-0 -21450-1 0  9996","OBJECT_ID":"2022-045AJ","REF_FRAME":"TEME","SITE":"AFETR","ECCENTRICITY":"0.00015450","PERIAPSIS":"455.238","RA_OF_ASC_NODE":"113.1770","TIME_SYSTEM":"UTC","INCLINATION":"53.2177","RCS_SIZE":"LARGE","APOAPSIS":"457.350","ARG_OF_PERICENTER":"51.9044","DECAY_DATE":null,"NORAD_CAT_ID":"52363","LAUNCH_DATE":"2022-04-29","PERIOD":"93.716","TLE_LINE2":"2 52363  53.2177 113.1770 0001545  51.9044 100.9915 15.36559514  1307","CLASSIFICATION_TYPE":"U","BSTAR":"-0.02145000000000","ELEMENT_SET_NO":"999","FILE":"3507746","MEAN_MOTION_DOT":"-0.00717454","COUNTRY_CODE":"US","OBJECT_NAME":"STARLINK-3830","SEMIMAJOR_AXIS":"6834.429","MEAN_ANOMALY":"100.9915","REV_AT_EPOCH":"130","EPOCH":"2022-07-04T22:00:00.999936","EPHEMERIS_TYPE":"0","GP_ID":"207420020","MEAN_MOTION_DDOT":"0.0000000000000","CENTER_NAME":"EARTH","OBJECT_TYPE":"PAYLOAD","MEAN_ELEMENT_THEORY":"SGP4"},{"ECCENTRICITY":"0.00028290","SITE":"AFETR","REF_FRAME":"TEME","OBJECT_ID":"2022-045AK","TLE_LINE1":"1 52364U 22045AK  22185.91667824  .00003963  00000-0  32644-4 0  9998","MEAN_MOTION":"15.73204284","NORAD_CAT_ID":"52364","DECAY_DATE":null,"APOAPSIS":"351.651","RCS_SIZE":"LARGE","ARG_OF_PERICENTER":"16.5971","INCLINATION":"53.2158","TIME_SYSTEM":"UTC","PERIAPSIS":"347.845","RA_OF_ASC_NODE":"109.4734","EPOCH":"2022-07-04T22:00:00.999936","MEAN_ANOMALY":"91.6654","REV_AT_EPOCH":"130","OBJECT_NAME":"STARLINK-3820","SEMIMAJOR_AXIS":"6727.883","FILE":"3507746","MEAN_MOTION_DOT":"0.00003963","COUNTRY_CODE":"US","TLE_LINE2":"2 52364  53.2158 109.4734 0002829  16.5971  91.6654 15.73204284  1305","PERIOD":"91.533","BSTAR":"0.00003264400000","CLASSIFICATION_TYPE":"U","ELEMENT_SET_NO":"999","LAUNCH_DATE":"2022-04-29","MEAN_ELEMENT_THEORY":"SGP4","OBJECT_TYPE":"PAYLOAD","CENTER_NAME":"EARTH","MEAN_MOTION_DDOT":"0.0000000000000","GP_ID":"207420274","EPHEMERIS_TYPE":"0"},{"ECCENTRICITY":"0.00033720","MEAN_MOTION":"15.73209491","TLE_LINE1":"1 52365U 22045AL  22185.91667824  .00006022  00000-0  47285-4 0  9995","OBJECT_ID":"2022-045AL","REF_FRAME":"TEME","SITE":"AFETR","DECAY_DATE":null,"NORAD_CAT_ID":"52365","RA_OF_ASC_NODE":"109.4790","PERIAPSIS":"347.464","TIME_SYSTEM":"UTC","INCLINATION":"53.2158","RCS_SIZE":"LARGE","APOAPSIS":"352.002","ARG_OF_PERICENTER":"9.9327","OBJECT_NAME":"STARLINK-3874","SEMIMAJOR_AXIS":"6727.868","MEAN_ANOMALY":"95.9439","REV_AT_EPOCH":"130","EPOCH":"2022-07-04T22:00:00.999936","LAUNCH_DATE":"2022-04-29","CLASSIFICATION_TYPE":"U","TLE_LINE2":"2 52365  53.2158 109.4790 0003372   9.9327  95.9439 15.73209491  1306","PERIOD":"91.533","BSTAR":"0.00004728500000","ELEMENT_SET_NO":"999","FILE":"3507746","MEAN_MOTION_DOT":"0.00006022","COUNTRY_CODE":"US","CENTER_NAME":"EARTH","OBJECT_TYPE":"PAYLOAD","MEAN_ELEMENT_THEORY":"SGP4","EPHEMERIS_TYPE":"0","GP_ID":"207419734","MEAN_MOTION_DDOT":"0.0000000000000"}];
